G21
G17
G90
G1 F16000 Z2
G1 F16000 Z2
G0 X20.0000 Y277.0001
G1 F16000 Z5
G1 F18000 X120.0001 Y277.0001
G1 F16000 Z2
G0 X20.0000 Y277.0001
G1 F16000 Z5
G1 F18000 X20.0000 Y273.0001
G1 F16000 Z2
G0 X21.0000 Y277.0001
G1 F16000 Z5
G1 F18000 X21.0000 Y275.5001
G1 F16000 Z2
G0 X22.0000 Y277.0001
G1 F16000 Z5
G1 F18000 X22.0000 Y275.5001
G1 F16000 Z2
G0 X23.0000 Y277.0001
G1 F16000 Z5
G1 F18000 X23.0000 Y275.5001
G1 F16000 Z2
G0 X24.0000 Y277.0001
G1 F16000 Z5
G1 F18000 X24.0000 Y275.5001
G1 F16000 Z2
G0 X25.0000 Y277.0001
G1 F16000 Z5
G1 F18000 X25.0000 Y274.5001
G1 F16000 Z2
G0 X26.0000 Y277.0001
G1 F16000 Z5
G1 F18000 X26.0000 Y275.5001
G1 F16000 Z2
G0 X27.0000 Y277.0001
G1 F16000 Z5
G1 F18000 X27.0000 Y275.5001
G1 F16000 Z2
G0 X28.0000 Y277.0001
G1 F16000 Z5
G1 F18000 X28.0000 Y275.5001
G1 F16000 Z2
G0 X29.0000 Y277.0001
G1 F16000 Z5
G1 F18000 X29.0000 Y275.5001
G1 F16000 Z2
G0 X30.0000 Y277.0001
G1 F16000 Z5
G1 F18000 X30.0000 Y273.0001
G1 F16000 Z2
G0 X31.0000 Y277.0001
G1 F16000 Z5
G1 F18000 X31.0000 Y275.5001
G1 F16000 Z2
G0 X32.0000 Y277.0001
G1 F16000 Z5
G1 F18000 X32.0000 Y275.5001
G1 F16000 Z2
G0 X33.0000 Y277.0001
G1 F16000 Z5
G1 F18000 X33.0000 Y275.5001
G1 F16000 Z2
G0 X34.0000 Y277.0001
G1 F16000 Z5
G1 F18000 X34.0000 Y275.5001
G1 F16000 Z2
G0 X35.0000 Y277.0001
G1 F16000 Z5
G1 F18000 X35.0000 Y274.5001
G1 F16000 Z2
G0 X36.0000 Y277.0001
G1 F16000 Z5
G1 F18000 X36.0000 Y275.5001
G1 F16000 Z2
G0 X37.0000 Y277.0001
G1 F16000 Z5
G1 F18000 X37.0000 Y275.5001
G1 F16000 Z2
G0 X38.0000 Y277.0001
G1 F16000 Z5
G1 F18000 X38.0000 Y275.5001
G1 F16000 Z2
G0 X39.0000 Y277.0001
G1 F16000 Z5
G1 F18000 X39.0000 Y275.5001
G1 F16000 Z2
G0 X40.0000 Y277.0001
G1 F16000 Z5
G1 F18000 X40.0000 Y273.0001
G1 F16000 Z2
G0 X41.0000 Y277.0001
G1 F16000 Z5
G1 F18000 X41.0000 Y275.5001
G1 F16000 Z2
G0 X42.0000 Y277.0001
G1 F16000 Z5
G1 F18000 X42.0000 Y275.5001
G1 F16000 Z2
G0 X43.0000 Y277.0001
G1 F16000 Z5
G1 F18000 X43.0000 Y275.5001
G1 F16000 Z2
G0 X44.0000 Y277.0001
G1 F16000 Z5
G1 F18000 X44.0000 Y275.5001
G1 F16000 Z2
G0 X45.0000 Y277.0001
G1 F16000 Z5
G1 F18000 X45.0000 Y274.5001
G1 F16000 Z2
G0 X46.0000 Y277.0001
G1 F16000 Z5
G1 F18000 X46.0000 Y275.5001
G1 F16000 Z2
G0 X47.0000 Y277.0001
G1 F16000 Z5
G1 F18000 X47.0000 Y275.5001
G1 F16000 Z2
G0 X48.0000 Y277.0001
G1 F16000 Z5
G1 F18000 X48.0000 Y275.5001
G1 F16000 Z2
G0 X49.0000 Y277.0001
G1 F16000 Z5
G1 F18000 X49.0000 Y275.5001
G1 F16000 Z2
G0 X50.0000 Y277.0001
G1 F16000 Z5
G1 F18000 X50.0000 Y273.0001
G1 F16000 Z2
G0 X51.0000 Y277.0001
G1 F16000 Z5
G1 F18000 X51.0000 Y275.5001
G1 F16000 Z2
G0 X52.0000 Y277.0001
G1 F16000 Z5
G1 F18000 X52.0000 Y275.5001
G1 F16000 Z2
G0 X53.0000 Y277.0001
G1 F16000 Z5
G1 F18000 X53.0000 Y275.5001
G1 F16000 Z2
G0 X54.0000 Y277.0001
G1 F16000 Z5
G1 F18000 X54.0000 Y275.5001
G1 F16000 Z2
G0 X55.0000 Y277.0001
G1 F16000 Z5
G1 F18000 X55.0000 Y274.5001
G1 F16000 Z2
G0 X56.0000 Y277.0001
G1 F16000 Z5
G1 F18000 X56.0000 Y275.5001
G1 F16000 Z2
G0 X57.0000 Y277.0001
G1 F16000 Z5
G1 F18000 X57.0000 Y275.5001
G1 F16000 Z2
G0 X58.0000 Y277.0001
G1 F16000 Z5
G1 F18000 X58.0000 Y275.5001
G1 F16000 Z2
G0 X59.0000 Y277.0001
G1 F16000 Z5
G1 F18000 X59.0000 Y275.5001
G1 F16000 Z2
G0 X60.0000 Y277.0001
G1 F16000 Z5
G1 F18000 X60.0000 Y273.0001
G1 F16000 Z2
G0 X61.0000 Y277.0001
G1 F16000 Z5
G1 F18000 X61.0000 Y275.5001
G1 F16000 Z2
G0 X62.0000 Y277.0001
G1 F16000 Z5
G1 F18000 X62.0000 Y275.5001
G1 F16000 Z2
G0 X63.0000 Y277.0001
G1 F16000 Z5
G1 F18000 X63.0000 Y275.5001
G1 F16000 Z2
G0 X64.0000 Y277.0001
G1 F16000 Z5
G1 F18000 X64.0000 Y275.5001
G1 F16000 Z2
G0 X65.0000 Y277.0001
G1 F16000 Z5
G1 F18000 X65.0000 Y274.5001
G1 F16000 Z2
G0 X66.0000 Y277.0001
G1 F16000 Z5
G1 F18000 X66.0000 Y275.5001
G1 F16000 Z2
G0 X67.0000 Y277.0001
G1 F16000 Z5
G1 F18000 X67.0000 Y275.5001
G1 F16000 Z2
G0 X68.0000 Y277.0001
G1 F16000 Z5
G1 F18000 X68.0000 Y275.5001
G1 F16000 Z2
G0 X69.0000 Y277.0001
G1 F16000 Z5
G1 F18000 X69.0000 Y275.5001
G1 F16000 Z2
G0 X70.0000 Y277.0001
G1 F16000 Z5
G1 F18000 X70.0000 Y273.0001
G1 F16000 Z2
G0 X71.0000 Y277.0001
G1 F16000 Z5
G1 F18000 X71.0000 Y275.5001
G1 F16000 Z2
G0 X72.0000 Y277.0001
G1 F16000 Z5
G1 F18000 X72.0000 Y275.5001
G1 F16000 Z2
G0 X73.0000 Y277.0001
G1 F16000 Z5
G1 F18000 X73.0000 Y275.5001
G1 F16000 Z2
G0 X74.0000 Y277.0001
G1 F16000 Z5
G1 F18000 X74.0000 Y275.5001
G1 F16000 Z2
G0 X75.0000 Y277.0001
G1 F16000 Z5
G1 F18000 X75.0000 Y274.5001
G1 F16000 Z2
G0 X76.0000 Y277.0001
G1 F16000 Z5
G1 F18000 X76.0000 Y275.5001
G1 F16000 Z2
G0 X77.0000 Y277.0001
G1 F16000 Z5
G1 F18000 X77.0000 Y275.5001
G1 F16000 Z2
G0 X78.0000 Y277.0001
G1 F16000 Z5
G1 F18000 X78.0000 Y275.5001
G1 F16000 Z2
G0 X79.0000 Y277.0001
G1 F16000 Z5
G1 F18000 X79.0000 Y275.5001
G1 F16000 Z2
G0 X80.0000 Y277.0001
G1 F16000 Z5
G1 F18000 X80.0000 Y273.0001
G1 F16000 Z2
G0 X81.0000 Y277.0001
G1 F16000 Z5
G1 F18000 X81.0000 Y275.5001
G1 F16000 Z2
G0 X82.0000 Y277.0001
G1 F16000 Z5
G1 F18000 X82.0000 Y275.5001
G1 F16000 Z2
G0 X83.0000 Y277.0001
G1 F16000 Z5
G1 F18000 X83.0000 Y275.5001
G1 F16000 Z2
G0 X84.0000 Y277.0001
G1 F16000 Z5
G1 F18000 X84.0000 Y275.5001
G1 F16000 Z2
G0 X85.0000 Y277.0001
G1 F16000 Z5
G1 F18000 X85.0000 Y274.5001
G1 F16000 Z2
G0 X86.0000 Y277.0001
G1 F16000 Z5
G1 F18000 X86.0000 Y275.5001
G1 F16000 Z2
G0 X87.0000 Y277.0001
G1 F16000 Z5
G1 F18000 X87.0000 Y275.5001
G1 F16000 Z2
G0 X88.0000 Y277.0001
G1 F16000 Z5
G1 F18000 X88.0000 Y275.5001
G1 F16000 Z2
G0 X89.0000 Y277.0001
G1 F16000 Z5
G1 F18000 X89.0000 Y275.5001
G1 F16000 Z2
G0 X90.0000 Y277.0001
G1 F16000 Z5
G1 F18000 X90.0000 Y273.0001
G1 F16000 Z2
G0 X91.0000 Y277.0001
G1 F16000 Z5
G1 F18000 X91.0000 Y275.5001
G1 F16000 Z2
G0 X92.0000 Y277.0001
G1 F16000 Z5
G1 F18000 X92.0000 Y275.5001
G1 F16000 Z2
G0 X93.0001 Y277.0001
G1 F16000 Z5
G1 F18000 X93.0001 Y275.5001
G1 F16000 Z2
G0 X94.0001 Y277.0001
G1 F16000 Z5
G1 F18000 X94.0001 Y275.5001
G1 F16000 Z2
G0 X95.0001 Y277.0001
G1 F16000 Z5
G1 F18000 X95.0001 Y274.5001
G1 F16000 Z2
G0 X96.0001 Y277.0001
G1 F16000 Z5
G1 F18000 X96.0001 Y275.5001
G1 F16000 Z2
G0 X97.0001 Y277.0001
G1 F16000 Z5
G1 F18000 X97.0001 Y275.5001
G1 F16000 Z2
G0 X98.0001 Y277.0001
G1 F16000 Z5
G1 F18000 X98.0001 Y275.5001
G1 F16000 Z2
G0 X99.0001 Y277.0001
G1 F16000 Z5
G1 F18000 X99.0001 Y275.5001
G1 F16000 Z2
G0 X100.0001 Y277.0001
G1 F16000 Z5
G1 F18000 X100.0001 Y273.0001
G1 F16000 Z2
G0 X101.0001 Y277.0001
G1 F16000 Z5
G1 F18000 X101.0001 Y275.5001
G1 F16000 Z2
G0 X102.0001 Y277.0001
G1 F16000 Z5
G1 F18000 X102.0001 Y275.5001
G1 F16000 Z2
G0 X103.0001 Y277.0001
G1 F16000 Z5
G1 F18000 X103.0001 Y275.5001
G1 F16000 Z2
G0 X104.0001 Y277.0001
G1 F16000 Z5
G1 F18000 X104.0001 Y275.5001
G1 F16000 Z2
G0 X105.0001 Y277.0001
G1 F16000 Z5
G1 F18000 X105.0001 Y274.5001
G1 F16000 Z2
G0 X106.0001 Y277.0001
G1 F16000 Z5
G1 F18000 X106.0001 Y275.5001
G1 F16000 Z2
G0 X107.0001 Y277.0001
G1 F16000 Z5
G1 F18000 X107.0001 Y275.5001
G1 F16000 Z2
G0 X108.0001 Y277.0001
G1 F16000 Z5
G1 F18000 X108.0001 Y275.5001
G1 F16000 Z2
G0 X109.0001 Y277.0001
G1 F16000 Z5
G1 F18000 X109.0001 Y275.5001
G1 F16000 Z2
G0 X110.0001 Y277.0001
G1 F16000 Z5
G1 F18000 X110.0001 Y273.0001
G1 F16000 Z2
G0 X111.0001 Y277.0001
G1 F16000 Z5
G1 F18000 X111.0001 Y275.5001
G1 F16000 Z2
G0 X112.0001 Y277.0001
G1 F16000 Z5
G1 F18000 X112.0001 Y275.5001
G1 F16000 Z2
G0 X113.0001 Y277.0001
G1 F16000 Z5
G1 F18000 X113.0001 Y275.5001
G1 F16000 Z2
G0 X114.0001 Y277.0001
G1 F16000 Z5
G1 F18000 X114.0001 Y275.5001
G1 F16000 Z2
G0 X115.0001 Y277.0001
G1 F16000 Z5
G1 F18000 X115.0001 Y274.5001
G1 F16000 Z2
G0 X116.0001 Y277.0001
G1 F16000 Z5
G1 F18000 X116.0001 Y275.5001
G1 F16000 Z2
G0 X117.0001 Y277.0001
G1 F16000 Z5
G1 F18000 X117.0001 Y275.5001
G1 F16000 Z2
G0 X118.0001 Y277.0001
G1 F16000 Z5
G1 F18000 X118.0001 Y275.5001
G1 F16000 Z2
G0 X119.0001 Y277.0001
G1 F16000 Z5
G1 F18000 X119.0001 Y275.5001
G1 F16000 Z2
G0 X120.0001 Y277.0001
G1 F16000 Z5
G1 F18000 X120.0001 Y273.0001
G1 F16000 Z2
G1 F16000 Z2
G0 X0 Y0
